{
  "type": "FeatureCollection",
  "features": [
    {
      "type": "Feature",
      "properties": {
        "norad_id": 64902,
        "name": "CO3D 2",
        "group": "resource",
        "lat": -56.91909921303334,
        "lon": 71.5499053485222,
        "alt_km": 506.5342089797805,
        "timestamp": "2025-12-09T16:56:36.238225+00:00",
        "meta_object_name": "CO3D 2",
        "meta_object_id": "2025-156D",
        "meta_epoch": "2025-12-09T12:27:23.937984",
        "meta_mean_motion": 15.20057842,
        "meta_eccentricity": 0.0009068,
        "meta_inclination": 97.4213,
        "meta_ra_of_asc_node": 59.8234,
        "meta_arg_of_pericenter": 303.4369,
        "meta_mean_anomaly": 56.5998,
        "meta_ephemeris_type": 0,
        "meta_classification_type": "U",
        "meta_norad_cat_id": 64902,
        "meta_element_set_no": 999,
        "meta_rev_at_epoch": 2071,
        "meta_bstar": 0.00028839,
        "meta_mean_motion_dot": 6.16e-05,
        "meta_mean_motion_ddot": 0,
        "tle_line1": "1 64902U 25156D   25343.51902706  .00006160  00000+0  28839-3 0  9992",
        "tle_line2": "2 64902  97.4213  59.8234 0009068 303.4369  56.5998 15.20057842 20717"
      },
      "geometry": {
        "type": "Point",
        "coordinates": [
          71.5499053485222,
          -56.91909921303334
        ]
      }
    },
    {
      "type": "Feature",
      "properties": {
        "norad_id": 64903,
        "name": "CO3D 1",
        "group": "resource",
        "lat": -57.40225573608221,
        "lon": 71.79723121422772,
        "alt_km": 512.9465607389784,
        "timestamp": "2025-12-09T16:56:36.238236+00:00",
        "meta_object_name": "CO3D 1",
        "meta_object_id": "2025-156E",
        "meta_epoch": "2025-12-09T10:52:47.881344",
        "meta_mean_motion": 15.20207044,
        "meta_eccentricity": 9.68e-05,
        "meta_inclination": 97.434,
        "meta_ra_of_asc_node": 59.7663,
        "meta_arg_of_pericenter": 100.2949,
        "meta_mean_anomaly": 259.8395,
        "meta_ephemeris_type": 0,
        "meta_classification_type": "U",
        "meta_norad_cat_id": 64903,
        "meta_element_set_no": 999,
        "meta_rev_at_epoch": 2070,
        "meta_bstar": 0.00040991,
        "meta_mean_motion_dot": 8.818e-05,
        "meta_mean_motion_ddot": 0,
        "tle_line1": "1 64903U 25156E   25343.45333196  .00008818  00000+0  40991-3 0  9992",
        "tle_line2": "2 64903  97.4340  59.7663 0000968 100.2949 259.8395 15.20207044 20700"
      },
      "geometry": {
        "type": "Point",
        "coordinates": [
          71.79723121422772,
          -57.40225573608221
        ]
      }
    },
    {
      "type": "Feature",
      "properties": {
        "norad_id": 66514,
        "name": "SENTINEL-6B",
        "group": "resource",
        "lat": 33.14045535679498,
        "lon": -28.135500325146534,
        "alt_km": 1331.4820603150802,
        "timestamp": "2025-12-09T16:56:36.238246+00:00",
        "meta_object_name": "SENTINEL-6B",
        "meta_object_id": "2025-264A",
        "meta_epoch": "2025-12-08T23:22:28.384896",
        "meta_mean_motion": 12.84031992,
        "meta_eccentricity": 0.00210406,
        "meta_inclination": 66.0385,
        "meta_ra_of_asc_node": 170.2707,
        "meta_arg_of_pericenter": 268.23,
        "meta_mean_anomaly": 91.6307,
        "meta_ephemeris_type": 0,
        "meta_classification_type": "U",
        "meta_norad_cat_id": 66514,
        "meta_element_set_no": 999,
        "meta_rev_at_epoch": 280,
        "meta_bstar": 0.000106025,
        "meta_mean_motion_dot": -3.6e-07,
        "meta_mean_motion_ddot": 0,
        "tle_line1": "1 66514U 25264A   25342.97393964 -.00000036  00000+0  10602-3 0  9998",
        "tle_line2": "2 66514  66.0385 170.2707 0021040 268.2300  91.6307 12.84031992  2809"
      },
      "geometry": {
        "type": "Point",
        "coordinates": [
          -28.135500325146534,
          33.14045535679498
        ]
      }
    }
  ]
}